{
  "type": "FeatureCollection",
  "features": [
    {
      "type": "Feature",
      "properties": {
        "norad_id": 30683,
        "name": "FENGYUN 1C DEB",
        "group": "fengyun-1c-debris",
        "lat": -39.81087873474836,
        "lon": 16.628777799986647,
        "alt_km": 952.0941815636979,
        "timestamp": "2025-12-22T20:43:46.126552+00:00",
        "meta_object_name": "FENGYUN 1C DEB",
        "meta_object_id": "1999-025AQR",
        "meta_epoch": "2025-12-21T13:05:37.679136",
        "meta_mean_motion": 14.00415415,
        "meta_eccentricity": 0.0138269,
        "meta_inclination": 99.4268,
        "meta_ra_of_asc_node": 7.3106,
        "meta_arg_of_pericenter": 200.5149,
        "meta_mean_anomaly": 315.8935,
        "meta_ephemeris_type": 0,
        "meta_classification_type": "U",
        "meta_norad_cat_id": 30683,
        "meta_element_set_no": 999,
        "meta_rev_at_epoch": 95674,
        "meta_bstar": 0.00085947,
        "meta_mean_motion_dot": 1.336e-05,
        "meta_mean_motion_ddot": 0,
        "tle_line1": "1 30683U 99025AQR 25355.54557499  .00001336  00000+0  85947-3 0  9991",
        "tle_line2": "2 30683  99.4268   7.3106 0138269 200.5149 315.8935 14.00415415956747"
      },
      "geometry": {
        "type": "Point",
        "coordinates": [
          16.628777799986647,
          -39.81087873474836
        ]
      }
    },
    {
      "type": "Feature",
      "properties": {
        "norad_id": 30684,
        "name": "FENGYUN 1C DEB",
        "group": "fengyun-1c-debris",
        "lat": -7.579321451201649,
        "lon": 39.3897320927495,
        "alt_km": 1068.123075183119,
        "timestamp": "2025-12-22T20:43:46.126562+00:00",
        "meta_object_name": "FENGYUN 1C DEB",
        "meta_object_id": "1999-025AQS",
        "meta_epoch": "2025-12-21T00:50:48.741504",
        "meta_mean_motion": 13.66822163,
        "meta_eccentricity": 0.02358167,
        "meta_inclination": 99.5309,
        "meta_ra_of_asc_node": 36.3069,
        "meta_arg_of_pericenter": 248.0087,
        "meta_mean_anomaly": 109.585,
        "meta_ephemeris_type": 0,
        "meta_classification_type": "U",
        "meta_norad_cat_id": 30684,
        "meta_element_set_no": 999,
        "meta_rev_at_epoch": 93742,
        "meta_bstar": 0.00085046597,
        "meta_mean_motion_dot": 8.13e-06,
        "meta_mean_motion_ddot": 0,
        "tle_line1": "1 30684U 99025AQS 25355.03528636  .00000813  00000+0  85047-3 0  9997",
        "tle_line2": "2 30684  99.5309  36.3069 0235816 248.0087 109.5850 13.66822163937420"
      },
      "geometry": {
        "type": "Point",
        "coordinates": [
          39.3897320927495,
          -7.579321451201649
        ]
      }
    },
    {
      "type": "Feature",
      "properties": {
        "norad_id": 30686,
        "name": "FENGYUN 1C DEB",
        "group": "fengyun-1c-debris",
        "lat": -49.420493312129075,
        "lon": 1.2089934737482222,
        "alt_km": 733.346568790058,
        "timestamp": "2025-12-22T20:43:46.126572+00:00",
        "meta_object_name": "FENGYUN 1C DEB",
        "meta_object_id": "1999-025AQU",
        "meta_epoch": "2025-12-22T05:18:36.658368",
        "meta_mean_motion": 14.73968727,
        "meta_eccentricity": 0.01441248,
        "meta_inclination": 99.0323,
        "meta_ra_of_asc_node": 191.197,
        "meta_arg_of_pericenter": 91.2245,
        "meta_mean_anomaly": 330.771,
        "meta_ephemeris_type": 0,
        "meta_classification_type": "U",
        "meta_norad_cat_id": 30686,
        "meta_element_set_no": 999,
        "meta_rev_at_epoch": 99741,
        "meta_bstar": 0.00066696091,
        "meta_mean_motion_dot": 5.109e-05,
        "meta_mean_motion_ddot": 0,
        "tle_line1": "1 30686U 99025AQU 25356.22125762  .00005109  00000+0  66696-3 0  9996",
        "tle_line2": "2 30686  99.0323 191.1970 0144124  91.2245 330.7710 14.73968727997413"
      },
      "geometry": {
        "type": "Point",
        "coordinates": [
          1.2089934737482222,
          -49.420493312129075
        ]
      }
    },
    {
      "type": "Feature",
      "properties": {
        "norad_id": 30688,
        "name": "FENGYUN 1C DEB",
        "group": "fengyun-1c-debris",
        "lat": 53.86862265357564,
        "lon": -97.61175616689135,
        "alt_km": 787.8349798731142,
        "timestamp": "2025-12-22T20:43:46.126582+00:00",
        "meta_object_name": "FENGYUN 1C DEB",
        "meta_object_id": "1999-025AQW",
        "meta_epoch": "2025-12-21T23:12:13.081248",
        "meta_mean_motion": 14.32769433,
        "meta_eccentricity": 0.00157187,
        "meta_inclination": 98.7009,
        "meta_ra_of_asc_node": 69.3796,
        "meta_arg_of_pericenter": 286.449,
        "meta_mean_anomaly": 255.1513,
        "meta_ephemeris_type": 0,
        "meta_classification_type": "U",
        "meta_norad_cat_id": 30688,
        "meta_element_set_no": 999,
        "meta_rev_at_epoch": 97392,
        "meta_bstar": 0.0014746755,
        "meta_mean_motion_dot": 3.98e-05,
        "meta_mean_motion_ddot": 0,
        "tle_line1": "1 30688U 99025AQW 25355.96681807  .00003980  00000+0  14747-2 0  9999",
        "tle_line2": "2 30688  98.7009  69.3796 0015718 286.4490 255.1513 14.32769433973929"
      },
      "geometry": {
        "type": "Point",
        "coordinates": [
          -97.61175616689135,
          53.86862265357564
        ]
      }
    },
    {
      "type": "Feature",
      "properties": {
        "norad_id": 30689,
        "name": "FENGYUN 1C DEB",
        "group": "fengyun-1c-debris",
        "lat": 74.64773585001414,
        "lon": -51.1334929475119,
        "alt_km": 765.3686098637481,
        "timestamp": "2025-12-22T20:43:46.126593+00:00",
        "meta_object_name": "FENGYUN 1C DEB",
        "meta_object_id": "1999-025AQX",
        "meta_epoch": "2025-12-22T12:26:14.720352",
        "meta_mean_motion": 14.1178131,
        "meta_eccentricity": 0.01117847,
        "meta_inclination": 98.7089,
        "meta_ra_of_asc_node": 342.4684,
        "meta_arg_of_pericenter": 75.7688,
        "meta_mean_anomaly": 46.5056,
        "meta_ephemeris_type": 0,
        "meta_classification_type": "U",
        "meta_norad_cat_id": 30689,
        "meta_element_set_no": 999,
        "meta_rev_at_epoch": 97028,
        "meta_bstar": 0.00035026142,
        "meta_mean_motion_dot": 6.35e-06,
        "meta_mean_motion_ddot": 0,
        "tle_line1": "1 30689U 99025AQX 25356.51822593  .00000635  00000+0  35026-3 0  9999",
        "tle_line2": "2 30689  98.7089 342.4684 0111784  75.7688  46.5056 14.11781310970282"
      },
      "geometry": {
        "type": "Point",
        "coordinates": [
          -51.1334929475119,
          74.64773585001414
        ]
      }
    },
    {
      "type": "Feature",
      "properties": {
        "norad_id": 30690,
        "name": "FENGYUN 1C DEB",
        "group": "fengyun-1c-debris",
        "lat": 36.67614618851618,
        "lon": 114.21258888432402,
        "alt_km": 887.8535141714856,
        "timestamp": "2025-12-22T20:43:46.126603+00:00",
        "meta_object_name": "FENGYUN 1C DEB",
        "meta_object_id": "1999-025AQY",
        "meta_epoch": "2025-12-22T11:47:09.031200",
        "meta_mean_motion": 14.02365932,
        "meta_eccentricity": 0.01049996,
        "meta_inclination": 99.1598,
        "meta_ra_of_asc_node": 286.9368,
        "meta_arg_of_pericenter": 49.4146,
        "meta_mean_anomaly": 11.7574,
        "meta_ephemeris_type": 0,
        "meta_classification_type": "U",
        "meta_norad_cat_id": 30690,
        "meta_element_set_no": 999,
        "meta_rev_at_epoch": 95844,
        "meta_bstar": 0.0015392715,
        "meta_mean_motion_dot": 2.436e-05,
        "meta_mean_motion_ddot": 0,
        "tle_line1": "1 30690U 99025AQY 25356.49107675  .00002436  00000+0  15393-2 0  9990",
        "tle_line2": "2 30690  99.1598 286.9368 0104999  49.4146  11.7574 14.02365932958443"
      },
      "geometry": {
        "type": "Point",
        "coordinates": [
          114.21258888432402,
          36.67614618851618
        ]
      }
    },
    {
      "type": "Feature",
      "properties": {
        "norad_id": 30691,
        "name": "FENGYUN 1C DEB",
        "group": "fengyun-1c-debris",
        "lat": 27.577449499801837,
        "lon": 3.0489088001736113,
        "alt_km": 1031.1734700265106,
        "timestamp": "2025-12-22T20:43:46.126613+00:00",
        "meta_object_name": "FENGYUN 1C DEB",
        "meta_object_id": "1999-025AQZ",
        "meta_epoch": "2025-12-22T12:41:46.483872",
        "meta_mean_motion": 13.89460231,
        "meta_eccentricity": 0.01395399,
        "meta_inclination": 98.7439,
        "meta_ra_of_asc_node": 7.3449,
        "meta_arg_of_pericenter": 206.2794,
        "meta_mean_anomaly": 308.4593,
        "meta_ephemeris_type": 0,
        "meta_classification_type": "U",
        "meta_norad_cat_id": 30691,
        "meta_element_set_no": 999,
        "meta_rev_at_epoch": 95252,
        "meta_bstar": 0.00094895425,
        "meta_mean_motion_dot": 1.212e-05,
        "meta_mean_motion_ddot": 0,
        "tle_line1": "1 30691U 99025AQZ 25356.52901023  .00001212  00000+0  94895-3 0  9990",
        "tle_line2": "2 30691  98.7439   7.3449 0139539 206.2794 308.4593 13.89460231952520"
      },
      "geometry": {
        "type": "Point",
        "coordinates": [
          3.0489088001736113,
          27.577449499801837
        ]
      }
    }
  ]
}